[{"OBJECT_NAME":"ONEWEB-0434","OBJECT_ID":"2022-012K","EPOCH":"2026-03-09T22:08:39.490656","MEAN_MOTION":13.1037589,"ECCENTRICITY":0.00013778,"INCLINATION":87.8776,"RA_OF_ASC_NODE":56.054,"ARG_OF_PERICENTER":67.3836,"MEAN_ANOMALY":292.7437,"EPHEMERIS_TYPE":0,"CLASSIFICATION_TYPE":"U","NORAD_CAT_ID":51631,"ELEMENT_SET_NO":999,"REV_AT_EPOCH":19632,"BSTAR":-0.0010878113,"MEAN_MOTION_DOT":-3.67e-6,"MEAN_MOTION_DDOT":0},{"OBJECT_NAME":"FENGYUN 1C DEB","OBJECT_ID":"1999-025CQA","EPOCH":"2026-03-03T00:17:47.903136","MEAN_MOTION":13.61045266,"ECCENTRICITY":0.02876193,"INCLINATION":102.504,"RA_OF_ASC_NODE":132.7692,"ARG_OF_PERICENTER":93.751,"MEAN_ANOMALY":269.6553,"EPHEMERIS_TYPE":0,"CLASSIFICATION_TYPE":"U","NORAD_CAT_ID":31997,"ELEMENT_SET_NO":999,"REV_AT_EPOCH":62775,"BSTAR":0.0018832508,"MEAN_MOTION_DOT":1.817e-5,"MEAN_MOTION_DDOT":0}]
